CCSDS_OMM_VERS = 2.0
CREATION_DATE  = 
ORIGINATOR     = 

OBJECT_NAME    = SL-3 R/B
OBJECT_ID      = 1988-032B
CENTER_NAME    = EARTH
REF_FRAME      = TEME
TIME_SYSTEM    = UTC
MEAN_ELEMENT_THEORY = SGP/SGP4

EPOCH          = 2026-03-12T15:06:09.609696
MEAN_MOTION    = 15.19948054
ECCENTRICITY   = .0024668
INCLINATION    = 97.5196
RA_OF_ASC_NODE = 54.8698
ARG_OF_PERICENTER = 220.6322
MEAN_ANOMALY   = 139.3072

EPHEMERIS_TYPE = 0
CLASSIFICATION_TYPE = U
NORAD_CAT_ID   = 19046
ELEMENT_SET_NO = 999
REV_AT_EPOCH   = 5255
BSTAR          = .30147E-3
MEAN_MOTION_DOT = .6465E-4
MEAN_MOTION_DDOT = 0

CCSDS_OMM_VERS = 2.0
CREATION_DATE  = 
ORIGINATOR     = 

OBJECT_NAME    = SL-16 R/B
OBJECT_ID      = 1988-039B
CENTER_NAME    = EARTH
REF_FRAME      = TEME
TIME_SYSTEM    = UTC
MEAN_ELEMENT_THEORY = SGP/SGP4

EPOCH          = 2026-03-12T09:01:29.665056
MEAN_MOTION    = 14.19615873
ECCENTRICITY   = .0022936
INCLINATION    = 71.0137
RA_OF_ASC_NODE = 62.8667
ARG_OF_PERICENTER = 330.4756
MEAN_ANOMALY   = 29.5073

EPHEMERIS_TYPE = 0
CLASSIFICATION_TYPE = U
NORAD_CAT_ID   = 19120
ELEMENT_SET_NO = 999
REV_AT_EPOCH   = 95876
BSTAR          = .78137E-4
MEAN_MOTION_DOT = .117E-5
MEAN_MOTION_DDOT = 0

CCSDS_OMM_VERS = 2.0
CREATION_DATE  = 
ORIGINATOR     = 

OBJECT_NAME    = COSMOS 1953
OBJECT_ID      = 1988-050A
CENTER_NAME    = EARTH
REF_FRAME      = TEME
TIME_SYSTEM    = UTC
MEAN_ELEMENT_THEORY = SGP/SGP4

EPOCH          = 2026-03-12T15:17:12.329664
MEAN_MOTION    = 15.28581721
ECCENTRICITY   = .0012541
INCLINATION    = 82.5103
RA_OF_ASC_NODE = 155.2835
ARG_OF_PERICENTER = 113.3425
MEAN_ANOMALY   = 246.9135

EPHEMERIS_TYPE = 0
CLASSIFICATION_TYPE = U
NORAD_CAT_ID   = 19210
ELEMENT_SET_NO = 999
REV_AT_EPOCH   = 3823
BSTAR          = .31737E-3
MEAN_MOTION_DOT = .8876E-4
MEAN_MOTION_DDOT = 0

CCSDS_OMM_VERS = 2.0
CREATION_DATE  = 
ORIGINATOR     = 

OBJECT_NAME    = SL-8 R/B
OBJECT_ID      = 1988-053B
CENTER_NAME    = EARTH
REF_FRAME      = TEME
TIME_SYSTEM    = UTC
MEAN_ELEMENT_THEORY = SGP/SGP4

EPOCH          = 2026-03-12T14:05:04.818048
MEAN_MOTION    = 14.38917770
ECCENTRICITY   = .0021473
INCLINATION    = 74.0456
RA_OF_ASC_NODE = 107.1257
ARG_OF_PERICENTER = 286.0145
MEAN_ANOMALY   = 188.5505

EPHEMERIS_TYPE = 0
CLASSIFICATION_TYPE = U
NORAD_CAT_ID   = 19257
ELEMENT_SET_NO = 999
REV_AT_EPOCH   = 97701
BSTAR          = .10685E-3
MEAN_MOTION_DOT = .304E-5
MEAN_MOTION_DDOT = 0

CCSDS_OMM_VERS = 2.0
CREATION_DATE  = 
ORIGINATOR     = 

OBJECT_NAME    = COSMOS 1975
OBJECT_ID      = 1988-093A
CENTER_NAME    = EARTH
REF_FRAME      = TEME
TIME_SYSTEM    = UTC
MEAN_ELEMENT_THEORY = SGP/SGP4

EPOCH          = 2026-03-12T14:32:44.906784
MEAN_MOTION    = 15.28114295
ECCENTRICITY   = .0012413
INCLINATION    = 82.5183
RA_OF_ASC_NODE = 114.7575
ARG_OF_PERICENTER = 153.5264
MEAN_ANOMALY   = 206.6612

EPHEMERIS_TYPE = 0
CLASSIFICATION_TYPE = U
NORAD_CAT_ID   = 19573
ELEMENT_SET_NO = 999
REV_AT_EPOCH   = 1985
BSTAR          = .26024E-3
MEAN_MOTION_DOT = .718E-4
MEAN_MOTION_DDOT = 0

CCSDS_OMM_VERS = 2.0
CREATION_DATE  = 
ORIGINATOR     = 

OBJECT_NAME    = SL-14 R/B
OBJECT_ID      = 1988-093B
CENTER_NAME    = EARTH
REF_FRAME      = TEME
TIME_SYSTEM    = UTC
MEAN_ELEMENT_THEORY = SGP/SGP4

EPOCH          = 2026-03-12T10:26:27.204576
MEAN_MOTION    = 14.85660630
ECCENTRICITY   = .0021577
INCLINATION    = 82.5309
RA_OF_ASC_NODE = 39.4663
ARG_OF_PERICENTER = 32.8451
MEAN_ANOMALY   = 88.9894

EPHEMERIS_TYPE = 0
CLASSIFICATION_TYPE = U
NORAD_CAT_ID   = 19574
ELEMENT_SET_NO = 999
REV_AT_EPOCH   = 142
BSTAR          = .8334E-4
MEAN_MOTION_DOT = .749E-5
MEAN_MOTION_DDOT = 0

CCSDS_OMM_VERS = 2.0
CREATION_DATE  = 
ORIGINATOR     = 

OBJECT_NAME    = SL-16 R/B
OBJECT_ID      = 1988-102B
CENTER_NAME    = EARTH
REF_FRAME      = TEME
TIME_SYSTEM    = UTC
MEAN_ELEMENT_THEORY = SGP/SGP4

EPOCH          = 2026-03-12T14:08:14.343360
MEAN_MOTION    = 14.16154064
ECCENTRICITY   = .0014158
INCLINATION    = 70.9999
RA_OF_ASC_NODE = 145.3973
ARG_OF_PERICENTER = 357.0827
MEAN_ANOMALY   = 3.0211

EPHEMERIS_TYPE = 0
CLASSIFICATION_TYPE = U
NORAD_CAT_ID   = 19650
ELEMENT_SET_NO = 999
REV_AT_EPOCH   = 92730
BSTAR          = .16592E-3
MEAN_MOTION_DOT = .281E-5
MEAN_MOTION_DDOT = 0

CCSDS_OMM_VERS = 2.0
CREATION_DATE  = 
ORIGINATOR     = 

OBJECT_NAME    = INTERCOSMOS 24
OBJECT_ID      = 1989-080A
CENTER_NAME    = EARTH
REF_FRAME      = TEME
TIME_SYSTEM    = UTC
MEAN_ELEMENT_THEORY = SGP/SGP4

EPOCH          = 2026-03-12T13:58:54.721056
MEAN_MOTION    = 12.59562801
ECCENTRICITY   = .1186682
INCLINATION    = 82.6021
RA_OF_ASC_NODE = 102.5200
ARG_OF_PERICENTER = 286.0994
MEAN_ANOMALY   = 61.2826

EPHEMERIS_TYPE = 0
CLASSIFICATION_TYPE = U
NORAD_CAT_ID   = 20261
ELEMENT_SET_NO = 999
REV_AT_EPOCH   = 66716
BSTAR          = .24814E-3
MEAN_MOTION_DOT = .833E-5
MEAN_MOTION_DDOT = 0

CCSDS_OMM_VERS = 2.0
CREATION_DATE  = 
ORIGINATOR     = 

OBJECT_NAME    = SL-14 R/B
OBJECT_ID      = 1989-080C
CENTER_NAME    = EARTH
REF_FRAME      = TEME
TIME_SYSTEM    = UTC
MEAN_ELEMENT_THEORY = SGP/SGP4

EPOCH          = 2026-03-12T16:14:18.676320
MEAN_MOTION    = 12.50498270
ECCENTRICITY   = .1230662
INCLINATION    = 82.5974
RA_OF_ASC_NODE = 171.2695
ARG_OF_PERICENTER = 177.9234
MEAN_ANOMALY   = 182.7712

EPHEMERIS_TYPE = 0
CLASSIFICATION_TYPE = U
NORAD_CAT_ID   = 20262
ELEMENT_SET_NO = 999
REV_AT_EPOCH   = 66052
BSTAR          = .20608E-3
MEAN_MOTION_DOT = .701E-5
MEAN_MOTION_DDOT = 0

CCSDS_OMM_VERS = 2.0
CREATION_DATE  = 
ORIGINATOR     = 

OBJECT_NAME    = DELTA 1 R/B
OBJECT_ID      = 1989-089B
CENTER_NAME    = EARTH
REF_FRAME      = TEME
TIME_SYSTEM    = UTC
MEAN_ELEMENT_THEORY = SGP/SGP4

EPOCH          = 2026-03-12T14:04:59.729088
MEAN_MOTION    = 14.50665673
ECCENTRICITY   = .0070581
INCLINATION    = 97.0704
RA_OF_ASC_NODE = 278.5648
ARG_OF_PERICENTER = 112.9989
MEAN_ANOMALY   = 247.8674

EPHEMERIS_TYPE = 0
CLASSIFICATION_TYPE = U
NORAD_CAT_ID   = 20323
ELEMENT_SET_NO = 999
REV_AT_EPOCH   = 89615
BSTAR          = .1102E-3
MEAN_MOTION_DOT = .412E-5
MEAN_MOTION_DDOT = 0

CCSDS_OMM_VERS = 2.0
CREATION_DATE  = 
ORIGINATOR     = 

OBJECT_NAME    = ARIANE 40 R/B
OBJECT_ID      = 1990-005H
CENTER_NAME    = EARTH
REF_FRAME      = TEME
TIME_SYSTEM    = UTC
MEAN_ELEMENT_THEORY = SGP/SGP4

EPOCH          = 2026-03-12T14:14:10.172256
MEAN_MOTION    = 14.39872729
ECCENTRICITY   = .0010025
INCLINATION    = 98.3078
RA_OF_ASC_NODE = 132.1681
ARG_OF_PERICENTER = 189.5582
MEAN_ANOMALY   = 170.5417

EPHEMERIS_TYPE = 0
CLASSIFICATION_TYPE = U
NORAD_CAT_ID   = 20443
ELEMENT_SET_NO = 999
REV_AT_EPOCH   = 89322
BSTAR          = .11657E-3
MEAN_MOTION_DOT = .324E-5
MEAN_MOTION_DDOT = 0

CCSDS_OMM_VERS = 2.0
CREATION_DATE  = 
ORIGINATOR     = 

OBJECT_NAME    = DELTA 2 R/B(1)
OBJECT_ID      = 1990-008B
CENTER_NAME    = EARTH
REF_FRAME      = TEME
TIME_SYSTEM    = UTC
MEAN_ELEMENT_THEORY = SGP/SGP4

EPOCH          = 2026-03-12T13:58:30.046944
MEAN_MOTION    = 15.56385855
ECCENTRICITY   = .0084468
INCLINATION    = 35.6032
RA_OF_ASC_NODE = 155.8638
ARG_OF_PERICENTER = 285.3867
MEAN_ANOMALY   = 73.7550

EPHEMERIS_TYPE = 0
CLASSIFICATION_TYPE = U
NORAD_CAT_ID   = 20453
ELEMENT_SET_NO = 999
REV_AT_EPOCH   = 92658
BSTAR          = .79308E-3
MEAN_MOTION_DOT = .68711E-3
MEAN_MOTION_DDOT = 0

